ZORKY-2M 7              
1 67268U 25313W   26020.91462536  .00019770  00000+0  90847-3 0  9993
2 67268  97.4104  97.9709 0016046 156.7468 203.4496 15.20294815  3559
2025-313X               
1 67269U 25313X   26020.91279477  .00032637  00000+0  14840-2 0  9999
2 67269  97.4132  97.9908 0015861 155.2864 204.9134 15.20553950  3553
SITRO-TD-3              
1 67270U 25313Y   26020.91462090  .00021626  00000+0  99207-3 0  9993
2 67270  97.4104  97.9814 0016015 156.8801 203.3159 15.20334057  3555
2025-313Z               
1 67271U 25313Z   26020.91607032  .00013654  00000+0  63249-3 0  9990
2 67271  97.4102  97.9693 0016231 152.8824 207.3263 15.20094506  3552
2025-313AA              
1 67272U 25313AA  26020.91231471  .00028545  00000+0  12995-2 0  9997
2 67272  97.4104  97.9731 0015762 157.2186 202.9752 15.20543811  3558
2025-313AB              
1 67273U 25313AB  26020.91602967  .00008420  00000+0  39219-3 0  9999
2 67273  97.4119  97.9740 0015089 161.0010 199.1792 15.20054554  3558
2025-313AC              
1 67274U 25313AC  26020.84837581  .00018015  00000+0  82881-3 0  9998
2 67274  97.4094  97.9129 0015824 156.4686 203.7277 15.20276064  3547
2025-313AD              
1 67275U 25313AD  26020.91333090  .00019123  00000+0  87797-3 0  9995
2 67275  97.4069  97.9713 0015015 159.0067 201.1788 15.20345406  3550
2025-313AE              
1 67276U 25313AE  26020.91330243  .00016135  00000+0  74163-3 0  9996
2 67276  97.4072  97.9724 0014941 159.1692 201.0156 15.20343745  3551
2025-313AF              
1 67277U 25313AF  26020.91366519  .00016335  00000+0  75177-3 0  9990
2 67277  97.4075  97.9728 0014957 158.8974 201.2881 15.20297799  3559
2025-313AG              
1 67278U 25313AG  26020.91343580  .00018231  00000+0  83800-3 0  9993
2 67278  97.4078  97.9738 0014938 158.6950 201.4911 15.20315727  3564
GALAPAGOS-UTE-SWSU      
1 67279U 25313AH  26020.91251846  .00017042  00000+0  78140-3 0  9997
2 67279  97.4087  97.9784 0015487 155.9593 204.2369 15.20408846  3551
