CCSDS_OMM_VERS = 2.0
CREATION_DATE  = 
ORIGINATOR     = 

OBJECT_NAME    = ZORKY-2M 7
OBJECT_ID      = 2025-313W
CENTER_NAME    = EARTH
REF_FRAME      = TEME
TIME_SYSTEM    = UTC
MEAN_ELEMENT_THEORY = SGP/SGP4

EPOCH          = 2026-01-20T21:57:03.631104
MEAN_MOTION    = 15.20294815
ECCENTRICITY   = .00160462
INCLINATION    = 97.4104
RA_OF_ASC_NODE = 97.9709
ARG_OF_PERICENTER = 156.7468
MEAN_ANOMALY   = 203.4496

EPHEMERIS_TYPE = 0
CLASSIFICATION_TYPE = U
NORAD_CAT_ID   = 67268
ELEMENT_SET_NO = 999
REV_AT_EPOCH   = 355
BSTAR          = .90847064E-3
MEAN_MOTION_DOT = .1977E-3
MEAN_MOTION_DDOT = 0

CCSDS_OMM_VERS = 2.0
CREATION_DATE  = 
ORIGINATOR     = 

OBJECT_NAME    = 2025-313X
OBJECT_ID      = 2025-313X
CENTER_NAME    = EARTH
REF_FRAME      = TEME
TIME_SYSTEM    = UTC
MEAN_ELEMENT_THEORY = SGP/SGP4

EPOCH          = 2026-01-20T21:54:25.468128
MEAN_MOTION    = 15.20553950
ECCENTRICITY   = .00158615
INCLINATION    = 97.4132
RA_OF_ASC_NODE = 97.9908
ARG_OF_PERICENTER = 155.2864
MEAN_ANOMALY   = 204.9134

EPHEMERIS_TYPE = 0
CLASSIFICATION_TYPE = U
NORAD_CAT_ID   = 67269
ELEMENT_SET_NO = 999
REV_AT_EPOCH   = 355
BSTAR          = .14839901E-2
MEAN_MOTION_DOT = .32637E-3
MEAN_MOTION_DDOT = 0

CCSDS_OMM_VERS = 2.0
CREATION_DATE  = 
ORIGINATOR     = 

OBJECT_NAME    = SITRO-TD-3
OBJECT_ID      = 2025-313Y
CENTER_NAME    = EARTH
REF_FRAME      = TEME
TIME_SYSTEM    = UTC
MEAN_ELEMENT_THEORY = SGP/SGP4

EPOCH          = 2026-01-20T21:57:03.245760
MEAN_MOTION    = 15.20334057
ECCENTRICITY   = .00160153
INCLINATION    = 97.4104
RA_OF_ASC_NODE = 97.9814
ARG_OF_PERICENTER = 156.8801
MEAN_ANOMALY   = 203.3159

EPHEMERIS_TYPE = 0
CLASSIFICATION_TYPE = U
NORAD_CAT_ID   = 67270
ELEMENT_SET_NO = 999
REV_AT_EPOCH   = 355
BSTAR          = .9920725E-3
MEAN_MOTION_DOT = .21626E-3
MEAN_MOTION_DDOT = 0

CCSDS_OMM_VERS = 2.0
CREATION_DATE  = 
ORIGINATOR     = 

OBJECT_NAME    = 2025-313Z
OBJECT_ID      = 2025-313Z
CENTER_NAME    = EARTH
REF_FRAME      = TEME
TIME_SYSTEM    = UTC
MEAN_ELEMENT_THEORY = SGP/SGP4

EPOCH          = 2026-01-20T21:59:08.475648
MEAN_MOTION    = 15.20094506
ECCENTRICITY   = .00162316
INCLINATION    = 97.4102
RA_OF_ASC_NODE = 97.9693
ARG_OF_PERICENTER = 152.8824
MEAN_ANOMALY   = 207.3263

EPHEMERIS_TYPE = 0
CLASSIFICATION_TYPE = U
NORAD_CAT_ID   = 67271
ELEMENT_SET_NO = 999
REV_AT_EPOCH   = 355
BSTAR          = .63249398E-3
MEAN_MOTION_DOT = .13654E-3
MEAN_MOTION_DDOT = 0

CCSDS_OMM_VERS = 2.0
CREATION_DATE  = 
ORIGINATOR     = 

OBJECT_NAME    = 2025-313AA
OBJECT_ID      = 2025-313AA
CENTER_NAME    = EARTH
REF_FRAME      = TEME
TIME_SYSTEM    = UTC
MEAN_ELEMENT_THEORY = SGP/SGP4

EPOCH          = 2026-01-20T21:53:43.990944
MEAN_MOTION    = 15.20543811
ECCENTRICITY   = .00157627
INCLINATION    = 97.4104
RA_OF_ASC_NODE = 97.9731
ARG_OF_PERICENTER = 157.2186
MEAN_ANOMALY   = 202.9752

EPHEMERIS_TYPE = 0
CLASSIFICATION_TYPE = U
NORAD_CAT_ID   = 67272
ELEMENT_SET_NO = 999
REV_AT_EPOCH   = 355
BSTAR          = .12994889E-2
MEAN_MOTION_DOT = .28545E-3
MEAN_MOTION_DDOT = 0

CCSDS_OMM_VERS = 2.0
CREATION_DATE  = 
ORIGINATOR     = 

OBJECT_NAME    = 2025-313AB
OBJECT_ID      = 2025-313AB
CENTER_NAME    = EARTH
REF_FRAME      = TEME
TIME_SYSTEM    = UTC
MEAN_ELEMENT_THEORY = SGP/SGP4

EPOCH          = 2026-01-20T21:59:04.963488
MEAN_MOTION    = 15.20054554
ECCENTRICITY   = .00150897
INCLINATION    = 97.4119
RA_OF_ASC_NODE = 97.9740
ARG_OF_PERICENTER = 161.0010
MEAN_ANOMALY   = 199.1792

EPHEMERIS_TYPE = 0
CLASSIFICATION_TYPE = U
NORAD_CAT_ID   = 67273
ELEMENT_SET_NO = 999
REV_AT_EPOCH   = 355
BSTAR          = .39218764E-3
MEAN_MOTION_DOT = .842E-4
MEAN_MOTION_DDOT = 0

CCSDS_OMM_VERS = 2.0
CREATION_DATE  = 
ORIGINATOR     = 

OBJECT_NAME    = 2025-313AC
OBJECT_ID      = 2025-313AC
CENTER_NAME    = EARTH
REF_FRAME      = TEME
TIME_SYSTEM    = UTC
MEAN_ELEMENT_THEORY = SGP/SGP4

EPOCH          = 2026-01-20T20:21:39.669984
MEAN_MOTION    = 15.20276064
ECCENTRICITY   = .00158242
INCLINATION    = 97.4094
RA_OF_ASC_NODE = 97.9129
ARG_OF_PERICENTER = 156.4686
MEAN_ANOMALY   = 203.7277

EPHEMERIS_TYPE = 0
CLASSIFICATION_TYPE = U
NORAD_CAT_ID   = 67274
ELEMENT_SET_NO = 999
REV_AT_EPOCH   = 354
BSTAR          = .8288121E-3
MEAN_MOTION_DOT = .18015E-3
MEAN_MOTION_DDOT = 0

CCSDS_OMM_VERS = 2.0
CREATION_DATE  = 
ORIGINATOR     = 

OBJECT_NAME    = 2025-313AD
OBJECT_ID      = 2025-313AD
CENTER_NAME    = EARTH
REF_FRAME      = TEME
TIME_SYSTEM    = UTC
MEAN_ELEMENT_THEORY = SGP/SGP4

EPOCH          = 2026-01-20T21:55:11.789760
MEAN_MOTION    = 15.20345406
ECCENTRICITY   = .00150158
INCLINATION    = 97.4069
RA_OF_ASC_NODE = 97.9713
ARG_OF_PERICENTER = 159.0067
MEAN_ANOMALY   = 201.1788

EPHEMERIS_TYPE = 0
CLASSIFICATION_TYPE = U
NORAD_CAT_ID   = 67275
ELEMENT_SET_NO = 999
REV_AT_EPOCH   = 355
BSTAR          = .87796744E-3
MEAN_MOTION_DOT = .19123E-3
MEAN_MOTION_DDOT = 0

CCSDS_OMM_VERS = 2.0
CREATION_DATE  = 
ORIGINATOR     = 

OBJECT_NAME    = 2025-313AE
OBJECT_ID      = 2025-313AE
CENTER_NAME    = EARTH
REF_FRAME      = TEME
TIME_SYSTEM    = UTC
MEAN_ELEMENT_THEORY = SGP/SGP4

EPOCH          = 2026-01-20T21:55:09.329952
MEAN_MOTION    = 15.20343745
ECCENTRICITY   = .0014941
INCLINATION    = 97.4072
RA_OF_ASC_NODE = 97.9724
ARG_OF_PERICENTER = 159.1692
MEAN_ANOMALY   = 201.0156

EPHEMERIS_TYPE = 0
CLASSIFICATION_TYPE = U
NORAD_CAT_ID   = 67276
ELEMENT_SET_NO = 999
REV_AT_EPOCH   = 355
BSTAR          = .74162687E-3
MEAN_MOTION_DOT = .16135E-3
MEAN_MOTION_DDOT = 0

CCSDS_OMM_VERS = 2.0
CREATION_DATE  = 
ORIGINATOR     = 

OBJECT_NAME    = 2025-313AF
OBJECT_ID      = 2025-313AF
CENTER_NAME    = EARTH
REF_FRAME      = TEME
TIME_SYSTEM    = UTC
MEAN_ELEMENT_THEORY = SGP/SGP4

EPOCH          = 2026-01-20T21:55:40.672416
MEAN_MOTION    = 15.20297799
ECCENTRICITY   = .0014957
INCLINATION    = 97.4075
RA_OF_ASC_NODE = 97.9728
ARG_OF_PERICENTER = 158.8974
MEAN_ANOMALY   = 201.2881

EPHEMERIS_TYPE = 0
CLASSIFICATION_TYPE = U
NORAD_CAT_ID   = 67277
ELEMENT_SET_NO = 999
REV_AT_EPOCH   = 355
BSTAR          = .75177166E-3
MEAN_MOTION_DOT = .16335E-3
MEAN_MOTION_DDOT = 0

CCSDS_OMM_VERS = 2.0
CREATION_DATE  = 
ORIGINATOR     = 

OBJECT_NAME    = 2025-313AG
OBJECT_ID      = 2025-313AG
CENTER_NAME    = EARTH
REF_FRAME      = TEME
TIME_SYSTEM    = UTC
MEAN_ELEMENT_THEORY = SGP/SGP4

EPOCH          = 2026-01-20T21:55:20.853120
MEAN_MOTION    = 15.20315727
ECCENTRICITY   = .00149384
INCLINATION    = 97.4078
RA_OF_ASC_NODE = 97.9738
ARG_OF_PERICENTER = 158.6950
MEAN_ANOMALY   = 201.4911

EPHEMERIS_TYPE = 0
CLASSIFICATION_TYPE = U
NORAD_CAT_ID   = 67278
ELEMENT_SET_NO = 999
REV_AT_EPOCH   = 356
BSTAR          = .83800344E-3
MEAN_MOTION_DOT = .18231E-3
MEAN_MOTION_DDOT = 0

CCSDS_OMM_VERS = 2.0
CREATION_DATE  = 
ORIGINATOR     = 

OBJECT_NAME    = GALAPAGOS-UTE-SWSU
OBJECT_ID      = 2025-313AH
CENTER_NAME    = EARTH
REF_FRAME      = TEME
TIME_SYSTEM    = UTC
MEAN_ELEMENT_THEORY = SGP/SGP4

EPOCH          = 2026-01-20T21:54:01.594944
MEAN_MOTION    = 15.20408846
ECCENTRICITY   = .00154874
INCLINATION    = 97.4087
RA_OF_ASC_NODE = 97.9784
ARG_OF_PERICENTER = 155.9593
MEAN_ANOMALY   = 204.2369

EPHEMERIS_TYPE = 0
CLASSIFICATION_TYPE = U
NORAD_CAT_ID   = 67279
ELEMENT_SET_NO = 999
REV_AT_EPOCH   = 355
BSTAR          = .78140088E-3
MEAN_MOTION_DOT = .17042E-3
MEAN_MOTION_DDOT = 0

